[{"OBJECT_NAME":"ONEWEB-0216","OBJECT_ID":"2021-045AL","EPOCH":"2025-09-10T16:18:21.850848","MEAN_MOTION":13.15546123,"ECCENTRICITY":0.00018277,"INCLINATION":87.9034,"RA_OF_ASC_NODE":314.9707,"ARG_OF_PERICENTER":91.4031,"MEAN_ANOMALY":268.7309,"EPHEMERIS_TYPE":0,"CLASSIFICATION_TYPE":"U","NORAD_CAT_ID":48801,"ELEMENT_SET_NO":999,"REV_AT_EPOCH":20755,"BSTAR":-4.86213e-6,"MEAN_MOTION_DOT":1.1e-7,"MEAN_MOTION_DDOT":0},{"OBJECT_NAME":"ONEWEB-0239","OBJECT_ID":"2021-045AM","EPOCH":"2025-09-10T21:53:46.239936","MEAN_MOTION":13.15549247,"ECCENTRICITY":0.00011836,"INCLINATION":87.9033,"RA_OF_ASC_NODE":314.9385,"ARG_OF_PERICENTER":117.1126,"MEAN_ANOMALY":243.0125,"EPHEMERIS_TYPE":0,"CLASSIFICATION_TYPE":"U","NORAD_CAT_ID":48802,"ELEMENT_SET_NO":999,"REV_AT_EPOCH":20762,"BSTAR":0.00020823004,"MEAN_MOTION_DOT":9.1e-7,"MEAN_MOTION_DDOT":0},{"OBJECT_NAME":"ONEWEB-0249","OBJECT_ID":"2021-060A","EPOCH":"2025-09-11T01:36:51.834240","MEAN_MOTION":13.16594841,"ECCENTRICITY":0.00018792,"INCLINATION":87.8984,"RA_OF_ASC_NODE":284.4118,"ARG_OF_PERICENTER":96.1699,"MEAN_ANOMALY":263.9646,"EPHEMERIS_TYPE":0,"CLASSIFICATION_TYPE":"U","NORAD_CAT_ID":48967,"ELEMENT_SET_NO":999,"REV_AT_EPOCH":20288,"BSTAR":8.5975485e-5,"MEAN_MOTION_DOT":4.6e-7,"MEAN_MOTION_DDOT":0},{"OBJECT_NAME":"ONEWEB-0250","OBJECT_ID":"2021-060B","EPOCH":"2025-09-11T01:47:39.794496","MEAN_MOTION":13.25813891,"ECCENTRICITY":0.00019241,"INCLINATION":87.8984,"RA_OF_ASC_NODE":283.0804,"ARG_OF_PERICENTER":123.8262,"MEAN_ANOMALY":236.3058,"EPHEMERIS_TYPE":0,"CLASSIFICATION_TYPE":"U","NORAD_CAT_ID":48968,"ELEMENT_SET_NO":999,"REV_AT_EPOCH":20323,"BSTAR":9.2961732e-5,"MEAN_MOTION_DOT":5.4e-7,"MEAN_MOTION_DDOT":0},{"OBJECT_NAME":"ONEWEB-0252","OBJECT_ID":"2021-060D","EPOCH":"2025-09-10T19:04:42.689856","MEAN_MOTION":13.16595063,"ECCENTRICITY":0.00020735,"INCLINATION":87.8987,"RA_OF_ASC_NODE":284.4594,"ARG_OF_PERICENTER":84.8336,"MEAN_ANOMALY":275.3032,"EPHEMERIS_TYPE":0,"CLASSIFICATION_TYPE":"U","NORAD_CAT_ID":48970,"ELEMENT_SET_NO":999,"REV_AT_EPOCH":20289,"BSTAR":-0.00039212921,"MEAN_MOTION_DOT":-1.37e-6,"MEAN_MOTION_DDOT":0},{"OBJECT_NAME":"ONEWEB-0253","OBJECT_ID":"2021-060E","EPOCH":"2025-09-10T18:48:44.911296","MEAN_MOTION":13.16594469,"ECCENTRICITY":0.00016193,"INCLINATION":87.8987,"RA_OF_ASC_NODE":284.4651,"ARG_OF_PERICENTER":93.6621,"MEAN_ANOMALY":266.4695,"EPHEMERIS_TYPE":0,"CLASSIFICATION_TYPE":"U","NORAD_CAT_ID":48971,"ELEMENT_SET_NO":999,"REV_AT_EPOCH":20282,"BSTAR":0.00016458268,"MEAN_MOTION_DOT":7.6e-7,"MEAN_MOTION_DDOT":0},{"OBJECT_NAME":"ONEWEB-0254","OBJECT_ID":"2021-060F","EPOCH":"2025-09-11T00:30:44.665056","MEAN_MOTION":13.1659408,"ECCENTRICITY":0.00014959,"INCLINATION":87.8989,"RA_OF_ASC_NODE":284.4044,"ARG_OF_PERICENTER":98.5202,"MEAN_ANOMALY":261.6098,"EPHEMERIS_TYPE":0,"CLASSIFICATION_TYPE":"U","NORAD_CAT_ID":48972,"ELEMENT_SET_NO":999,"REV_AT_EPOCH":20285,"BSTAR":2.8077682e-5,"MEAN_MOTION_DOT":2.4e-7,"MEAN_MOTION_DDOT":0},{"OBJECT_NAME":"ONEWEB-0255","OBJECT_ID":"2021-060G","EPOCH":"2025-09-10T23:36:00.888768","MEAN_MOTION":13.16595437,"ECCENTRICITY":0.00016342,"INCLINATION":87.8978,"RA_OF_ASC_NODE":284.4388,"ARG_OF_PERICENTER":95.2434,"MEAN_ANOMALY":264.8883,"EPHEMERIS_TYPE":0,"CLASSIFICATION_TYPE":"U","NORAD_CAT_ID":48973,"ELEMENT_SET_NO":999,"REV_AT_EPOCH":20292,"BSTAR":8.920049e-5,"MEAN_MOTION_DOT":4.7e-7,"MEAN_MOTION_DDOT":0},{"OBJECT_NAME":"ONEWEB-0256","OBJECT_ID":"2021-060H","EPOCH":"2025-09-10T18:45:19.667232","MEAN_MOTION":13.16595253,"ECCENTRICITY":0.00019892,"INCLINATION":87.8978,"RA_OF_ASC_NODE":284.4896,"ARG_OF_PERICENTER":89.6683,"MEAN_ANOMALY":270.4675,"EPHEMERIS_TYPE":0,"CLASSIFICATION_TYPE":"U","NORAD_CAT_ID":48974,"ELEMENT_SET_NO":999,"REV_AT_EPOCH":20286,"BSTAR":0.00019954662,"MEAN_MOTION_DOT":8.9e-7,"MEAN_MOTION_DDOT":0},{"OBJECT_NAME":"ONEWEB-0257","OBJECT_ID":"2021-060J","EPOCH":"2025-09-10T19:32:04.625952","MEAN_MOTION":13.16594685,"ECCENTRICITY":0.00017164,"INCLINATION":87.8989,"RA_OF_ASC_NODE":284.4523,"ARG_OF_PERICENTER":90.1193,"MEAN_ANOMALY":270.0135,"EPHEMERIS_TYPE":0,"CLASSIFICATION_TYPE":"U","NORAD_CAT_ID":48975,"ELEMENT_SET_NO":999,"REV_AT_EPOCH":20282,"BSTAR":-0.00027940528,"MEAN_MOTION_DOT":-9.4e-7,"MEAN_MOTION_DDOT":0},{"OBJECT_NAME":"ONEWEB-0258","OBJECT_ID":"2021-060K","EPOCH":"2025-09-11T01:02:38.926176","MEAN_MOTION":13.16597497,"ECCENTRICITY":0.00018917,"INCLINATION":87.8978,"RA_OF_ASC_NODE":284.4298,"ARG_OF_PERICENTER":96.2693,"MEAN_ANOMALY":263.8654,"EPHEMERIS_TYPE":0,"CLASSIFICATION_TYPE":"U","NORAD_CAT_ID":48976,"ELEMENT_SET_NO":999,"REV_AT_EPOCH":20286,"BSTAR":0.00055046585,"MEAN_MOTION_DOT":2.23e-6,"MEAN_MOTION_DDOT":0},{"OBJECT_NAME":"ONEWEB-0259","OBJECT_ID":"2021-060L","EPOCH":"2025-09-11T00:53:32.467776","MEAN_MOTION":13.16595281,"ECCENTRICITY":0.00017364,"INCLINATION":87.8986,"RA_OF_ASC_NODE":284.4171,"ARG_OF_PERICENTER":95.4552,"MEAN_ANOMALY":264.6777,"EPHEMERIS_TYPE":0,"CLASSIFICATION_TYPE":"U","NORAD_CAT_ID":48977,"ELEMENT_SET_NO":999,"REV_AT_EPOCH":20289,"BSTAR":5.955673e-6,"MEAN_MOTION_DOT":1.5e-7,"MEAN_MOTION_DDOT":0},{"OBJECT_NAME":"ONEWEB-0260","OBJECT_ID":"2021-060M","EPOCH":"2025-09-10T19:12:41.262048","MEAN_MOTION":13.16595495,"ECCENTRICITY":0.00020934,"INCLINATION":87.8976,"RA_OF_ASC_NODE":284.4874,"ARG_OF_PERICENTER":79.5398,"MEAN_ANOMALY":280.5969,"EPHEMERIS_TYPE":0,"CLASSIFICATION_TYPE":"U","NORAD_CAT_ID":48978,"ELEMENT_SET_NO":999,"REV_AT_EPOCH":20284,"BSTAR":-5.7802336e-5,"MEAN_MOTION_DOT":-9.0e-8,"MEAN_MOTION_DDOT":0},{"OBJECT_NAME":"ONEWEB-0261","OBJECT_ID":"2021-060N","EPOCH":"2025-09-10T23:57:41.417856","MEAN_MOTION":13.165936,"ECCENTRICITY":0.00015248,"INCLINATION":87.8976,"RA_OF_ASC_NODE":284.4497,"ARG_OF_PERICENTER":84.2087,"MEAN_ANOMALY":275.9218,"EPHEMERIS_TYPE":0,"CLASSIFICATION_TYPE":"U","NORAD_CAT_ID":48979,"ELEMENT_SET_NO":999,"REV_AT_EPOCH":20292,"BSTAR":0.00015566551,"MEAN_MOTION_DOT":7.2e-7,"MEAN_MOTION_DDOT":0},{"OBJECT_NAME":"ONEWEB-0262","OBJECT_ID":"2021-060P","EPOCH":"2025-09-11T01:18:36.803232","MEAN_MOTION":13.16595577,"ECCENTRICITY":0.00016715,"INCLINATION":87.8988,"RA_OF_ASC_NODE":284.4024,"ARG_OF_PERICENTER":101.6434,"MEAN_ANOMALY":258.4884,"EPHEMERIS_TYPE":0,"CLASSIFICATION_TYPE":"U","NORAD_CAT_ID":48980,"ELEMENT_SET_NO":999,"REV_AT_EPOCH":20289,"BSTAR":-3.0426266e-5,"MEAN_MOTION_DOT":1.0e-8,"MEAN_MOTION_DDOT":0},{"OBJECT_NAME":"ONEWEB-0263","OBJECT_ID":"2021-060Q","EPOCH":"2025-09-10T18:46:28.956576","MEAN_MOTION":13.16594827,"ECCENTRICITY":0.00014149,"INCLINATION":87.898,"RA_OF_ASC_NODE":284.4791,"ARG_OF_PERICENTER":91.6813,"MEAN_ANOMALY":268.448,"EPHEMERIS_TYPE":0,"CLASSIFICATION_TYPE":"U","NORAD_CAT_ID":48981,"ELEMENT_SET_NO":999,"REV_AT_EPOCH":20282,"BSTAR":0.00010090237,"MEAN_MOTION_DOT":5.1e-7,"MEAN_MOTION_DDOT":0},{"OBJECT_NAME":"ONEWEB-0264","OBJECT_ID":"2021-060R","EPOCH":"2025-09-10T19:40:02.791200","MEAN_MOTION":13.16592813,"ECCENTRICITY":0.0001842,"INCLINATION":87.8978,"RA_OF_ASC_NODE":284.4764,"ARG_OF_PERICENTER":85.6565,"MEAN_ANOMALY":274.4776,"EPHEMERIS_TYPE":0,"CLASSIFICATION_TYPE":"U","NORAD_CAT_ID":48982,"ELEMENT_SET_NO":999,"REV_AT_EPOCH":20283,"BSTAR":-0.00010218898,"MEAN_MOTION_DOT":-2.6e-7,"MEAN_MOTION_DDOT":0}]
