ONEWEB-0216             
1 48801U 21045AL  25253.67941957  .00000011  00000+0 -48621-5 0  9996
2 48801  87.9034 314.9707 0001827  91.4031 268.7309 13.15546123207556
ONEWEB-0239             
1 48802U 21045AM  25253.91234074  .00000091  00000+0  20823-3 0  9998
2 48802  87.9033 314.9385 0001183 117.1126 243.0125 13.15549247207624
ONEWEB-0249             
1 48967U 21060A   25254.06726660  .00000046  00000+0  85975-4 0  9991
2 48967  87.8984 284.4118 0001879  96.1699 263.9646 13.16594841202881
ONEWEB-0250             
1 48968U 21060B   25254.07476614  .00000054  00000+0  92962-4 0  9997
2 48968  87.8984 283.0804 0001924 123.8262 236.3058 13.25813891203234
ONEWEB-0252             
1 48970U 21060D   25253.79493854 -.00000137  00000+0 -39213-3 0  9996
2 48970  87.8987 284.4594 0002073  84.8336 275.3032 13.16595063202899
ONEWEB-0253             
1 48971U 21060E   25253.78385314  .00000076  00000+0  16458-3 0  9993
2 48971  87.8987 284.4651 0001619  93.6621 266.4695 13.16594469202822
ONEWEB-0254             
1 48972U 21060F   25254.02135029  .00000024  00000+0  28078-4 0  9993
2 48972  87.8989 284.4044 0001495  98.5202 261.6098 13.16594080202858
ONEWEB-0255             
1 48973U 21060G   25253.98334362  .00000047  00000+0  89200-4 0  9998
2 48973  87.8978 284.4388 0001634  95.2434 264.8883 13.16595437202926
ONEWEB-0256             
1 48974U 21060H   25253.78147763  .00000089  00000+0  19955-3 0  9999
2 48974  87.8978 284.4896 0001989  89.6683 270.4675 13.16595253202868
ONEWEB-0257             
1 48975U 21060J   25253.81394243 -.00000094  00000+0 -27941-3 0  9993
2 48975  87.8989 284.4523 0001716  90.1193 270.0135 13.16594685202820
ONEWEB-0258             
1 48976U 21060K   25254.04350609  .00000223  00000+0  55047-3 0  9998
2 48976  87.8978 284.4298 0001891  96.2693 263.8654 13.16597497202868
ONEWEB-0259             
1 48977U 21060L   25254.03718134  .00000015  00000+0  59557-5 0  9990
2 48977  87.8986 284.4171 0001736  95.4552 264.6777 13.16595281202898
ONEWEB-0260             
1 48978U 21060M   25253.80047757 -.00000009  00000+0 -57802-4 0  9996
2 48978  87.8976 284.4874 0002093  79.5398 280.5969 13.16595495202848
ONEWEB-0261             
1 48979U 21060N   25253.99839604  .00000072  00000+0  15567-3 0  9996
2 48979  87.8976 284.4497 0001524  84.2087 275.9218 13.16593600202926
ONEWEB-0262             
1 48980U 21060P   25254.05459263  .00000001  00000+0 -30426-4 0  9990
2 48980  87.8988 284.4024 0001671 101.6434 258.4884 13.16595577202896
ONEWEB-0263             
1 48981U 21060Q   25253.78227959  .00000051  00000+0  10090-3 0  9993
2 48981  87.8980 284.4791 0001414  91.6813 268.4480 13.16594827202827
ONEWEB-0264             
1 48982U 21060R   25253.81947675 -.00000026  00000+0 -10219-3 0  9999
2 48982  87.8978 284.4764 0001842  85.6565 274.4776 13.16592813202836
